OBJECT_NAME,OBJECT_ID,EPOCH,MEAN_MOTION,ECCENTRICITY,INCLINATION,RA_OF_ASC_NODE,ARG_OF_PERICENTER,MEAN_ANOMALY,EPHEMERIS_TYPE,CLASSIFICATION_TYPE,NORAD_CAT_ID,ELEMENT_SET_NO,REV_AT_EPOCH,BSTAR,MEAN_MOTION_DOT,MEAN_MOTION_DDOT
KUIPER-00622,2026-151S,2026-07-21T05:40:34.477824,15.37008941,.00067565,51.8736,151.2261,166.4140,193.7029,0,U,69779,999,294,.28849054E-3,.10237E-3,0
KUIPER-00623,2026-151T,2026-07-21T07:05:36.629376,15.37911067,.00027496,51.8798,150.8797,2.4984,357.6016,0,U,69780,999,295,-.25674308E-2,-.9639E-3,0
KUIPER-00626,2026-151U,2026-07-21T06:05:10.360896,15.34599262,.00099617,51.8731,151.3352,185.0661,175.0225,0,U,69781,999,294,-.50677306E-3,-.17621E-3,0
KUIPER-00627,2026-151V,2026-07-21T06:09:12.643776,15.34351133,.00107884,51.8700,151.3487,191.8065,168.2669,0,U,69782,999,294,.46283434E-3,.15305E-3,0
KUIPER-00629,2026-151W,2026-07-21T06:00:02.999808,15.27953061,.00063597,51.8807,151.4514,179.4790,133.9751,0,U,69783,999,327,-.20186598E-1,-.521861E-2,0
KUIPER-00631,2026-151X,2026-07-21T06:00:02.999808,15.27635042,.00077738,51.8770,151.4127,179.0727,142.1926,0,U,69784,999,130,-.27998273E-2,-.76358E-3,0
KUIPER-00634,2026-151Y,2026-07-21T05:27:12.008448,15.37835275,.00035176,51.8772,151.1688,154.6987,205.4173,0,U,69785,999,294,.30099928E-3,.10992E-3,0
KUIPER-00639,2026-151Z,2026-07-21T06:00:02.999808,15.34502388,.0009647,51.8698,151.3149,179.8304,177.7116,0,U,69786,999,211,.1283106E-2,.43465E-3,0
KUIPER-00641,2026-151AA,2026-07-21T06:11:42.235872,15.34166725,.00118249,51.8684,151.3583,185.2798,174.8065,0,U,69787,999,294,.43634262E-3,.14324E-3,0
KUIPER-00644,2026-151AB,2026-07-21T04:15:00.921600,15.36575353,.00081209,51.8746,151.5767,179.5028,180.5968,0,U,69788,999,292,.26783238E-3,.9341E-4,0
KUIPER-00646,2026-151AC,2026-07-21T05:57:34.332192,15.35279806,.00080538,51.8707,151.2989,187.8409,172.2452,0,U,69789,999,294,.25034111E-3,.834E-4,0
KUIPER-00647,2026-151AD,2026-07-21T06:06:14.525856,15.34654962,.00108097,51.8674,151.3323,187.2965,172.7865,0,U,69790,999,294,.45332318E-3,.1513E-3,0
KUIPER-00662,2026-151AE,2026-07-20T22:00:23.614272,15.36578088,.00083273,51.8745,152.8325,178.4752,181.6261,0,U,69791,999,289,.37319467E-3,.13179E-3,0
LINK,2026-152A,2026-07-20T21:52:12.646272,15.68307940,.00237826,20.5928,283.3487,75.7060,284.6026,0,U,69792,999,275,.86963815E-3,.105936E-2,0
2026-152B,2026-152B,2026-07-20T11:37:12.678528,15.65147193,.00230942,20.5974,286.9874,65.9670,294.3191,0,U,69793,999,268,.33676712E-3,.36326E-3,0
ISS OBJECT YJ,1998-067YJ,2026-07-21T02:38:40.109280,15.50272623,.00077029,51.6311,132.0929,332.1900,27.8676,0,U,69794,999,291,.45292602E-3,.25751E-3,0
ISS OBJECT YK,1998-067YK,2026-07-21T04:01:47.451648,15.51146588,.00064202,51.6310,131.7291,339.2892,20.7837,0,U,69795,999,292,.79149375E-3,.46897E-3,0
ISS OBJECT YL,1998-067YL,2026-07-21T00:59:09.159072,15.50801962,.00085693,51.6316,132.3817,332.9742,27.0800,0,U,69796,999,289,.60182886E-3,.35078E-3,0
ISS OBJECT YM,1998-067YM,2026-07-19T02:34:42.199104,15.50730438,.00095402,51.6313,141.9694,317.3157,42.7090,0,U,69797,999,258,.48640602E-3,.28173E-3,0
ISS OBJECT YN,1998-067YN,2026-07-20T12:38:26.990592,15.50509087,.00091388,51.6317,134.9466,334.2509,25.8024,0,U,69798,999,282,.34427759E-3,.19623E-3,0
PROVES-ELECTRA,1998-067YP,2026-07-21T00:58:29.590464,15.50834784,.00096338,51.6320,132.3775,324.7588,35.2763,0,U,69799,999,289,.5951596E-3,.34737E-3,0
QIANFAN-201,2026-153A,2026-07-21T06:49:31.084320,14.22094676,.00084165,88.9929,358.3460,157.4681,202.6881,0,U,69800,999,241,.28950184E-4,.79E-6,0
QIANFAN-202,2026-153B,2026-07-21T05:56:11.793408,14.18844705,.00073956,88.9929,358.3592,156.9262,203.2261,0,U,69801,999,240,.76620533E-4,.174E-5,0
QIANFAN-203,2026-153C,2026-07-21T05:41:47.802912,14.19389421,.00079743,88.9929,358.3576,158.8917,201.2603,0,U,69802,999,240,.92227856E-4,.208E-5,0
QIANFAN-204,2026-153D,2026-07-21T05:46:22.464192,14.20115310,.00083722,88.9929,358.3581,160.0793,200.0726,0,U,69803,999,240,.74694282E-4,.174E-5,0
QIANFAN-205,2026-153E,2026-07-20T21:13:41.299392,14.18677304,.00087877,88.9914,358.3944,169.7444,190.3926,0,U,69804,999,235,.27513669E-4,.71E-6,0
QIANFAN-206,2026-153F,2026-07-20T20:54:48.795840,14.19740763,.00094507,88.9908,358.3931,162.3221,197.8299,0,U,69805,999,235,.26479119E-4,.71E-6,0
QIANFAN-207,2026-153G,2026-07-21T03:36:24.012288,14.20768540,.0007837,88.9926,358.3648,158.3294,201.8229,0,U,69806,999,239,.28274095E-4,.76E-6,0
QIANFAN-208,2026-153H,2026-07-20T20:42:00.012096,14.23213695,.00117831,88.9946,358.4137,163.3646,196.7935,0,U,69807,999,235,.26955044E-4,.76E-6,0
QIANFAN-209,2026-153J,2026-07-21T05:25:21.069120,14.19691153,.00083576,88.9929,358.3565,157.2404,202.9158,0,U,69808,999,240,.28525842E-4,.75E-6,0
