KUIPER-00622            
1 69779U 26151S   26202.23651016  .00010237  00000+0  28849-3 0  9995
2 69779  51.8736 151.2261 0006756 166.4140 193.7029 15.37008941  2948
KUIPER-00623            
1 69780U 26151T   26202.29556284 -.00096390  00000+0 -25674-2 0  9992
2 69780  51.8798 150.8797 0002749   2.4984 357.6016 15.37911067  2950
KUIPER-00626            
1 69781U 26151U   26202.25359214 -.00017621  00000+0 -50677-3 0  9995
2 69781  51.8731 151.3352 0009961 185.0661 175.0225 15.34599262  2943
KUIPER-00627            
1 69782U 26151V   26202.25639634  .00015305  00000+0  46283-3 0  9996
2 69782  51.8700 151.3487 0010788 191.8065 168.2669 15.34351133  2940
KUIPER-00629            
1 69783U 26151W   26202.25003472 -.00521861  00000+0 -20187-1 0  9996
2 69783  51.8807 151.4514 0006359 179.4790 133.9751 15.27953061  3275
KUIPER-00631            
1 69784U 26151X   26202.25003472 -.00076358  00000+0 -27998-2 0  9991
2 69784  51.8770 151.4127 0007773 179.0727 142.1926 15.27635042  1306
KUIPER-00634            
1 69785U 26151Y   26202.22722232  .00010992  00000+0  30100-3 0  9991
2 69785  51.8772 151.1688 0003517 154.6987 205.4173 15.37835275  2946
KUIPER-00639            
1 69786U 26151Z   26202.25003472  .00043465  00000+0  12831-2 0  9994
2 69786  51.8698 151.3149 0009647 179.8304 177.7116 15.34502388  2110
KUIPER-00641            
1 69787U 26151AA  26202.25812773  .00014324  00000+0  43634-3 0  9995
2 69787  51.8684 151.3583 0011824 185.2798 174.8065 15.34166725  2949
KUIPER-00644            
1 69788U 26151AB  26202.17709400  .00009341  00000+0  26783-3 0  9998
2 69788  51.8746 151.5767 0008120 179.5028 180.5968 15.36575353  2929
KUIPER-00646            
1 69789U 26151AC  26202.24831403  .00008340  00000+0  25034-3 0  9992
2 69789  51.8707 151.2989 0008053 187.8409 172.2452 15.35279806  2941
KUIPER-00647            
1 69790U 26151AD  26202.25433479  .00015130  00000+0  45332-3 0  9994
2 69790  51.8674 151.3323 0010809 187.2965 172.7865 15.34654962  2944
KUIPER-00662            
1 69791U 26151AE  26201.91693998  .00013179  00000+0  37319-3 0  9998
2 69791  51.8745 152.8325 0008327 178.4752 181.6261 15.36578088  2899
LINK                    
1 69792U 26152A   26201.91125748  .00105936  00000+0  86964-3 0  9996
2 69792  20.5928 283.3487 0023782  75.7060 284.6026 15.68307940  2758
2026-152B               
1 69793U 26152B   26201.48417452  .00036326  00000+0  33677-3 0  9994
2 69793  20.5974 286.9874 0023094  65.9670 294.3191 15.65147193  2685
ISS OBJECT YJ           
1 69794U 98067YJ  26202.11018645  .00025751  00000+0  45293-3 0  9998
2 69794  51.6311 132.0929 0007702 332.1900  27.8676 15.50272623  2915
ISS OBJECT YK           
1 69795U 98067YK  26202.16791032  .00046897  00000+0  79149-3 0  9993
2 69795  51.6310 131.7291 0006420 339.2892  20.7837 15.51146588  2920
ISS OBJECT YL           
1 69796U 98067YL  26202.04107823  .00035078  00000+0  60183-3 0  9997
2 69796  51.6316 132.3817 0008569 332.9742  27.0800 15.50801962  2897
ISS OBJECT YM           
1 69797U 98067YM  26200.10743286  .00028173  00000+0  48641-3 0  9995
2 69797  51.6313 141.9694 0009540 317.3157  42.7090 15.50730438  2581
ISS OBJECT YN           
1 69798U 98067YN  26201.52670128  .00019623  00000+0  34428-3 0  9995
2 69798  51.6317 134.9466 0009138 334.2509  25.8024 15.50509087  2827
PROVES-ELECTRA          
1 69799U 98067YP  26202.04062026  .00034737  00000+0  59516-3 0  9994
2 69799  51.6320 132.3775 0009633 324.7588  35.2763 15.50834784  2895
QIANFAN-201             
1 69800U 26153A   26202.28438755  .00000079  00000+0  28950-4 0  9997
2 69800  88.9929 358.3460 0008416 157.4681 202.6881 14.22094676  2415
QIANFAN-202             
1 69801U 26153B   26202.24735872  .00000174  00000+0  76621-4 0  9998
2 69801  88.9929 358.3592 0007395 156.9262 203.2261 14.18844705  2405
QIANFAN-203             
1 69802U 26153C   26202.23735883  .00000208  00000+0  92228-4 0  9999
2 69802  88.9929 358.3576 0007974 158.8917 201.2603 14.19389421  2407
QIANFAN-204             
1 69803U 26153D   26202.24053778  .00000174  00000+0  74694-4 0  9996
2 69803  88.9929 358.3581 0008372 160.0793 200.0726 14.20115310  2403
QIANFAN-205             
1 69804U 26153E   26201.88450578  .00000071  00000+0  27514-4 0  9990
2 69804  88.9914 358.3944 0008787 169.7444 190.3926 14.18677304  2350
QIANFAN-206             
1 69805U 26153F   26201.87139810  .00000071  00000+0  26479-4 0  9992
2 69805  88.9908 358.3931 0009450 162.3221 197.8299 14.19740763  2356
QIANFAN-207             
1 69806U 26153G   26202.15027792  .00000076  00000+0  28274-4 0  9990
2 69806  88.9926 358.3648 0007837 158.3294 201.8229 14.20768540  2392
QIANFAN-208             
1 69807U 26153H   26201.86250014  .00000076  00000+0  26955-4 0  9997
2 69807  88.9946 358.4137 0011783 163.3646 196.7935 14.23213695  2352
QIANFAN-209             
1 69808U 26153J   26202.22593830  .00000075  00000+0  28526-4 0  9990
2 69808  88.9929 358.3565 0008357 157.2404 202.9158 14.19691153  2402
